[
    {
        "Altitude(m)": 622200.0964933749,
        "Argument of Periapsis(deg)": 0.0,
        "Eccentricity": 0.0,
        "Inclination(deg)": 60.0,
        "Latitude(deg)": -52.16250867474492,
        "Longitude(deg)": 32.36088049520861,
        "Mean Anomaly(deg)": -65.45450000000002,
        "RAAN(deg)": 180.0,
        "Satellite Name": "Test1 810",
        "Satellite Number": 810,
        "Semi-Major Axis(m)": 6980739.136638005,
        "Time(s)": 0
    },
    {
        "Altitude(m)": 622058.263723843,
        "Argument of Periapsis(deg)": 0.00010418945913296404,
        "Eccentricity": 0.0,
        "Inclination(deg)": 60.0,
        "Latitude(deg)": -51.799256989793406,
        "Longitude(deg)": 33.12893620536213,
        "Mean Anomaly(deg)": -64.83439385453818,
        "RAAN(deg)": 179.99957995086024,
        "Satellite Name": "Test1 810",
        "Satellite Number": 810,
        "Semi-Major Axis(m)": 6980739.136638005,
        "Time(s)": 10
    },
    {
        "Altitude(m)": 621913.6976757002,
        "Argument of Periapsis(deg)": 0.0002083789182659281,
        "Eccentricity": 0.0,
        "Inclination(deg)": 60.0,
        "Latitude(deg)": -51.43049375594618,
        "Longitude(deg)": 33.88401315071425,
        "Mean Anomaly(deg)": -64.21428770907634,
        "RAAN(deg)": 179.99915990172053,
        "Satellite Name": "Test1 810",
        "Satellite Number": 810,
        "Semi-Major Axis(m)": 6980739.136638005,
        "Time(s)": 20
    },
    {
        "Altitude(m)": 621766.4547885334,
        "Argument of Periapsis(deg)": 0.00031256837739889213,
        "Eccentricity": 0.0,
        "Inclination(deg)": 60.0,
        "Latitude(deg)": -51.056376093499544,
        "Longitude(deg)": 34.626301030941676,
        "Mean Anomaly(deg)": -63.594181563614505,
        "RAAN(deg)": 179.99873985258077,
        "Satellite Name": "Test1 810",
        "Satellite Number": 810,
        "Semi-Major Axis(m)": 6980739.136638005,
        "Time(s)": 30
    },
    {
        "Altitude(m)": 621616.5925183265,
        "Argument of Periapsis(deg)": 0.0004167578365318562,
        "Eccentricity": 0.0,
        "Inclination(deg)": 60.0,
        "Latitude(deg)": -50.67705743219632,
        "Longitude(deg)": 35.35599731100093,
        "Mean Anomaly(deg)": -62.974075418152665,
        "RAAN(deg)": 179.99831980344103,
        "Satellite Name": "Test1 810",
        "Satellite Number": 810,
        "Semi-Major Axis(m)": 6980739.136638005,
        "Time(s)": 40
    },
    {
        "Altitude(m)": 621464.1693128728,
        "Argument of Periapsis(deg)": 0.0005209472956648203,
        "Eccentricity": 0.0,
        "Inclination(deg)": 60.0,
        "Latitude(deg)": -50.29268748422612,
        "Longitude(deg)": 36.073305171300554,
        "Mean Anomaly(deg)": -62.353969272690826,
        "RAAN(deg)": 179.99789975430127,
        "Satellite Name": "Test1 810",
        "Satellite Number": 810,
        "Semi-Major Axis(m)": 6980739.136638005,
        "Time(s)": 50
    },
    {
        "Altitude(m)": 621309.2445866994,
        "Argument of Periapsis(deg)": 0.0006251367547977843,
        "Eccentricity": 0.0,
        "Inclination(deg)": 60.0,
        "Latitude(deg)": -49.90341223177782,
        "Longitude(deg)": 36.77843304009284,
        "Mean Anomaly(deg)": -61.733863127228986,
        "RAAN(deg)": 179.99747970516157,
        "Satellite Name": "Test1 810",
        "Satellite Number": 810,
        "Semi-Major Axis(m)": 6980739.136638005,
        "Time(s)": 60
    },
    {
        "Altitude(m)": 621151.8786956172,
        "Argument of Periapsis(deg)": 0.0007293262139307483,
        "Eccentricity": 0.0,
        "Inclination(deg)": 60.0,
        "Latitude(deg)": -49.509373927742736,
        "Longitude(deg)": 37.47159419380675,
        "Mean Anomaly(deg)": -61.11375698176713,
        "RAAN(deg)": 179.9970596560218,
        "Satellite Name": "Test1 810",
        "Satellite Number": 810,
        "Semi-Major Axis(m)": 6980739.136638005,
        "Time(s)": 70
    },
    {
        "Altitude(m)": 620992.1329107927,
        "Argument of Periapsis(deg)": 0.0008335156730637124,
        "Eccentricity": 0.0,
        "Inclination(deg)": 60.0,
        "Latitude(deg)": -49.11071110823931,
        "Longitude(deg)": 38.15300491062889,
        "Mean Anomaly(deg)": -60.49365083630531,
        "RAAN(deg)": 179.99663960688207,
        "Satellite Name": "Test1 810",
        "Satellite Number": 810,
        "Semi-Major Axis(m)": 6980739.136638005,
        "Time(s)": 80
    },
    {
        "Altitude(m)": 620830.0693924392,
        "Argument of Periapsis(deg)": 0.0009377051321966765,
        "Eccentricity": 0.0,
        "Inclination(deg)": 60.0,
        "Latitude(deg)": -48.707558615694055,
        "Longitude(deg)": 38.822884200918615,
        "Mean Anomaly(deg)": -59.87354469084345,
        "RAAN(deg)": 179.9962195577423,
        "Satellite Name": "Test1 810",
        "Satellite Number": 810,
        "Semi-Major Axis(m)": 6980739.136638005,
        "Time(s)": 90
    },
    {
        "Altitude(m)": 620665.7511630962,
        "Argument of Periapsis(deg)": 0.0010418945913296407,
        "Eccentricity": 0.0,
        "Inclination(deg)": 60.0,
        "Latitude(deg)": -48.300047631297794,
        "Longitude(deg)": 39.481453599169384,
        "Mean Anomaly(deg)": -59.25343854538163,
        "RAAN(deg)": 179.9957995086026,
        "Satellite Name": "Test1 810",
        "Satellite Number": 810,
        "Semi-Major Axis(m)": 6980739.136638005,
        "Time(s)": 100
    },
    {
        "Altitude(m)": 620499.2420805111,
        "Argument of Periapsis(deg)": 0.0011460840504626045,
        "Eccentricity": 0.0,
        "Inclination(deg)": 60.0,
        "Latitude(deg)": -47.888305715732926,
        "Longitude(deg)": 40.12893550202671,
        "Mean Anomaly(deg)": -58.63333239991988,
        "RAAN(deg)": 179.9953794594628,
        "Satellite Name": "Test1 810",
        "Satellite Number": 810,
        "Semi-Major Axis(m)": 6980739.136638005,
        "Time(s)": 110
    },
    {
        "Altitude(m)": 620330.6068101367,
        "Argument of Periapsis(deg)": 0.0012502735095955685,
        "Eccentricity": 0.0,
        "Inclination(deg)": 60.0,
        "Latitude(deg)": -47.472456857134794,
        "Longitude(deg)": 40.76555307535251,
        "Mean Anomaly(deg)": -58.01322625445795,
        "RAAN(deg)": 179.99495941032308,
        "Satellite Name": "Test1 810",
        "Satellite Number": 810,
        "Semi-Major Axis(m)": 6980739.136638005,
        "Time(s)": 120
    },
    {
        "Altitude(m)": 620159.9107972876,
        "Argument of Periapsis(deg)": 0.0013544629687285324,
        "Eccentricity": 0.0,
        "Inclination(deg)": 60.0,
        "Latitude(deg)": -47.052621525336775,
        "Longitude(deg)": 41.391530214612615,
        "Mean Anomaly(deg)": -57.3931201089962,
        "RAAN(deg)": 179.99453936118334,
        "Satellite Name": "Test1 810",
        "Satellite Number": 810,
        "Semi-Major Axis(m)": 6980739.136638005,
        "Time(s)": 130
    },
    {
        "Altitude(m)": 619987.2202388791,
        "Argument of Periapsis(deg)": 0.0014586524278614966,
        "Eccentricity": 0.0,
        "Inclination(deg)": 60.0,
        "Latitude(deg)": -46.62891673151598,
        "Longitude(deg)": 42.007090042825396,
        "Mean Anomaly(deg)": -56.77301396353437,
        "RAAN(deg)": 179.9941193120436,
        "Satellite Name": "Test1 810",
        "Satellite Number": 810,
        "Semi-Major Axis(m)": 6980739.136638005,
        "Time(s)": 140
    },
    {
        "Altitude(m)": 619812.6020548912,
        "Argument of Periapsis(deg)": 0.0015628418869944607,
        "Eccentricity": 0.0,
        "Inclination(deg)": 60.0,
        "Latitude(deg)": -46.20145609242757,
        "Longitude(deg)": 42.61245496890104,
        "Mean Anomaly(deg)": -56.152907818072514,
        "RAAN(deg)": 179.99369926290385,
        "Satellite Name": "Test1 810",
        "Satellite Number": 810,
        "Semi-Major Axis(m)": 6980739.136638005,
        "Time(s)": 150
    },
    {
        "Altitude(m)": 619636.1238594291,
        "Argument of Periapsis(deg)": 0.0016670313461274247,
        "Eccentricity": 0.0,
        "Inclination(deg)": 60.0,
        "Latitude(deg)": -45.77034989848598,
        "Longitude(deg)": 43.20784679061504,
        "Mean Anomaly(deg)": -55.53280167261069,
        "RAAN(deg)": 179.9932792137641,
        "Satellite Name": "Test1 810",
        "Satellite Number": 810,
        "Semi-Major Axis(m)": 6980739.136638005,
        "Time(s)": 160
    },
    {
        "Altitude(m)": 619457.8539315184,
        "Argument of Periapsis(deg)": 0.0017712208052603888,
        "Eccentricity": 0.0,
        "Inclination(deg)": 60.0,
        "Latitude(deg)": -45.33570518501876,
        "Longitude(deg)": 43.793485326497034,
        "Mean Anomaly(deg)": -54.91269552714894,
        "RAAN(deg)": 179.99285916462438,
        "Satellite Name": "Test1 810",
        "Satellite Number": 810,
        "Semi-Major Axis(m)": 6980739.136638005,
        "Time(s)": 170
    },
    {
        "Altitude(m)": 619277.8611855272,
        "Argument of Periapsis(deg)": 0.001875410264393353,
        "Eccentricity": 0.0,
        "Inclination(deg)": 60.0,
        "Latitude(deg)": -44.897625806073336,
        "Longitude(deg)": 44.369588599599744,
        "Mean Anomaly(deg)": -54.29258938168701,
        "RAAN(deg)": 179.99243911548464,
        "Satellite Name": "Test1 810",
        "Satellite Number": 810,
        "Semi-Major Axis(m)": 6980739.136638005,
        "Time(s)": 180
    },
    {
        "Altitude(m)": 619096.2151413424,
        "Argument of Periapsis(deg)": 0.0019795997235263173,
        "Eccentricity": 0.0,
        "Inclination(deg)": 60.0,
        "Latitude(deg)": -44.45621251022379,
        "Longitude(deg)": 44.93637305757663,
        "Mean Anomaly(deg)": -53.67248323622526,
        "RAAN(deg)": 179.99201906634488,
        "Satellite Name": "Test1 810",
        "Satellite Number": 810,
        "Semi-Major Axis(m)": 6980739.136638005,
        "Time(s)": 190
    }
]